{"type": "FeatureCollection", "features": [ {"type": "Feature", "properties": {"norad_id": 34375, "name": "IRIDIUM 33 DEB", "group": "iridium-33-debris", "lat": -4.31467119612676, "lon": -0.8601524976777355, "alt_km": 831.264484570991, "timestamp": "2025-12-22T05:49:03.886328+00:00", "meta": {"OBJECT_NAME": "IRIDIUM 33 DEB", "OBJECT_ID": "1997-051FT", "EPOCH": "2025-12-21T18:54:05.228064", "MEAN_MOTION": 14.18007741, "ECCENTRICITY": 0.0103707, "INCLINATION": 86.4322, "RA_OF_ASC_NODE": 179.0535, "ARG_OF_PERICENTER": 98.4333, "MEAN_ANOMALY": 284.1213, "EPHEMERIS_TYPE": 0, "CLASSIFICATION_TYPE": "U", "NORAD_CAT_ID": 34375, "ELEMENT_SET_NO": 999, "REV_AT_EPOCH": 86840, "BSTAR": 0.00033721, "MEAN_MOTION_DOT": 7.48e-06, "MEAN_MOTION_DDOT": 0}, "tle": {"line1": "1 34375U 97051FT  25355.78756051  .00000748  00000+0  33721-3 0  9990", "line2": "2 34375  86.4322 179.0535 0103707  98.4333 284.1213 14.18007741868407"}}, "geometry": {"type": "Point", "coordinates": [-0.8601524976777355, -4.31467119612676]}}, {"type": "Feature", "properties": {"norad_id": 34376, "name": "IRIDIUM 33 DEB", "group": "iridium-33-debris", "lat": -79.22544027474626, "lon": -17.625749511443438, "alt_km": 708.2052244897759, "timestamp": "2025-12-22T05:49:03.886338+00:00", "meta": {"OBJECT_NAME": "IRIDIUM 33 DEB", "OBJECT_ID": "1997-051FU", "EPOCH": "2025-12-21T12:07:24.797568", "MEAN_MOTION": 14.62675501, "ECCENTRICITY": 0.00281411, "INCLINATION": 86.2976, "RA_OF_ASC_NODE": 2.5986, "ARG_OF_PERICENTER": 137.7647, "MEAN_ANOMALY": 222.5739, "EPHEMERIS_TYPE": 0, "CLASSIFICATION_TYPE": "U", "NORAD_CAT_ID": 34376, "ELEMENT_SET_NO": 999, "REV_AT_EPOCH": 88135, "BSTAR": 0.0010610953, "MEAN_MOTION_DOT": 5.451e-05, "MEAN_MOTION_DDOT": 0}, "tle": {"line1": "1 34376U 97051FU  25355.50514812  .00005451  00000+0  10611-2 0  9996", "line2": "2 34376  86.2976   2.5986 0028141 137.7647 222.5739 14.62675501881356"}}, "geometry": {"type": "Point", "coordinates": [-17.625749511443438, -79.22544027474626]}}, {"type": "Feature", "properties": {"norad_id": 34486, "name": "IRIDIUM 33 DEB", "group": "iridium-33-debris", "lat": -16.819087639645076, "lon": -171.27012896152107, "alt_km": 587.3634954573236, "timestamp": "2025-12-22T05:49:03.886348+00:00", "meta": {"OBJECT_NAME": "IRIDIUM 33 DEB", "OBJECT_ID": "1997-051GB", "EPOCH": "2025-12-21T13:27:11.413728", "MEAN_MOTION": 14.96156216, "ECCENTRICITY": 0.0013923, "INCLINATION": 86.3924, "RA_OF_ASC_NODE": 7.952, "ARG_OF_PERICENTER": 87.2037, "MEAN_ANOMALY": 39.211, "EPHEMERIS_TYPE": 0, "CLASSIFICATION_TYPE": "U", "NORAD_CAT_ID": 34486, "ELEMENT_SET_NO": 999, "REV_AT_EPOCH": 89118, "BSTAR": 0.0016335, "MEAN_MOTION_DOT": 0.00018477, "MEAN_MOTION_DDOT": 0}, "tle": {"line1": "1 34486U 97051GB  25355.56054877  .00018477  00000+0  16335-2 0  9995", "line2": "2 34486  86.3924   7.9520 0013923  87.2037  39.2110 14.96156216891181"}}, "geometry": {"type": "Point", "coordinates": [-171.27012896152107, -16.819087639645076]}}, {"type": "Feature", "properties": {"norad_id": 34487, "name": "IRIDIUM 33 DEB", "group": "iridium-33-debris", "lat": -29.28688615877905, "lon": -169.65860791894642, "alt_km": 762.0712394384464, "timestamp": "2025-12-22T05:49:03.886361+00:00", "meta": {"OBJECT_NAME": "IRIDIUM 33 DEB", "OBJECT_ID": "1997-051GC", "EPOCH": "2025-12-21T19:41:03.774912", "MEAN_MOTION": 14.4322687, "ECCENTRICITY": 0.0033228, "INCLINATION": 86.3429, "RA_OF_ASC_NODE": 8.4674, "ARG_OF_PERICENTER": 100.1253, "MEAN_ANOMALY": 76.4458, "EPHEMERIS_TYPE": 0, "CLASSIFICATION_TYPE": "U", "NORAD_CAT_ID": 34487, "ELEMENT_SET_NO": 999, "REV_AT_EPOCH": 88379, "BSTAR": 0.0001448, "MEAN_MOTION_DOT": 5.11e-06, "MEAN_MOTION_DDOT": 0}, "tle": {"line1": "1 34487U 97051GC  25355.82018258  .00000511  00000+0  14480-3 0  9998", "line2": "2 34487  86.3429   8.4674 0033228 100.1253  76.4458 14.43226870883795"}}, "geometry": {"type": "Point", "coordinates": [-169.65860791894642, -29.28688615877905]}}, {"type": "Feature", "properties": {"norad_id": 34488, "name": "IRIDIUM 33 DEB", "group": "iridium-33-debris", "lat": -79.01220683714283, "lon": -78.2314383418235, "alt_km": 481.4584259639987, "timestamp": "2025-12-22T05:49:03.886373+00:00", "meta": {"OBJECT_NAME": "IRIDIUM 33 DEB", "OBJECT_ID": "1997-051GD", "EPOCH": "2025-12-20T21:13:54.490080", "MEAN_MOTION": 15.31302202, "ECCENTRICITY": 0.0010948, "INCLINATION": 86.3254, "RA_OF_ASC_NODE": 301.7725, "ARG_OF_PERICENTER": 38.0894, "MEAN_ANOMALY": 322.1127, "EPHEMERIS_TYPE": 0, "CLASSIFICATION_TYPE": "U", "NORAD_CAT_ID": 34488, "ELEMENT_SET_NO": 999, "REV_AT_EPOCH": 89364, "BSTAR": 0.0030791, "MEAN_MOTION_DOT": 0.00094223, "MEAN_MOTION_DDOT": 0}, "tle": {"line1": "1 34488U 97051GD  25354.88465845  .00094223  00000+0  30791-2 0  9997", "line2": "2 34488  86.3254 301.7725 0010948  38.0894 322.1127 15.31302202893643"}}, "geometry": {"type": "Point", "coordinates": [-78.2314383418235, -79.01220683714283]}}, {"type": "Feature", "properties": {"norad_id": 34492, "name": "IRIDIUM 33 DEB", "group": "iridium-33-debris", "lat": 62.51821105987022, "lon": -22.400289105655826, "alt_km": 909.0346644476176, "timestamp": "2025-12-22T05:49:03.886384+00:00", "meta": {"OBJECT_NAME": "IRIDIUM 33 DEB", "OBJECT_ID": "1997-051GH", "EPOCH": "2025-12-21T16:53:32.785152", "MEAN_MOTION": 14.25874095, "ECCENTRICITY": 0.0188684, "INCLINATION": 86.4714, "RA_OF_ASC_NODE": 331.0047, "ARG_OF_PERICENTER": 209.0267, "MEAN_ANOMALY": 332.2714, "EPHEMERIS_TYPE": 0, "CLASSIFICATION_TYPE": "U", "NORAD_CAT_ID": 34492, "ELEMENT_SET_NO": 999, "REV_AT_EPOCH": 85186, "BSTAR": 0.002243, "MEAN_MOTION_DOT": 6.457e-05, "MEAN_MOTION_DDOT": 0}, "tle": {"line1": "1 34492U 97051GH  25355.70385168  .00006457  00000+0  22430-2 0  9996", "line2": "2 34492  86.4714 331.0047 0188684 209.0267 332.2714 14.25874095851868"}}, "geometry": {"type": "Point", "coordinates": [-22.400289105655826, 62.51821105987022]}}, {"type": "Feature", "properties": {"norad_id": 34497, "name": "IRIDIUM 33 DEB", "group": "iridium-33-debris", "lat": -0.5698083270945126, "lon": 48.30497903611751, "alt_km": 767.7763124891771, "timestamp": "2025-12-22T05:49:03.886394+00:00", "meta": {"OBJECT_NAME": "IRIDIUM 33 DEB", "OBJECT_ID": "1997-051GN", "EPOCH": "2025-12-21T03:02:18.965760", "MEAN_MOTION": 14.27475874, "ECCENTRICITY": 0.00780469, "INCLINATION": 86.2771, "RA_OF_ASC_NODE": 48.8187, "ARG_OF_PERICENTER": 312.1215, "MEAN_ANOMALY": 76.3389, "EPHEMERIS_TYPE": 0, "CLASSIFICATION_TYPE": "U", "NORAD_CAT_ID": 34497, "ELEMENT_SET_NO": 999, "REV_AT_EPOCH": 87003, "BSTAR": 0.00042941712, "MEAN_MOTION_DOT": 1.107e-05, "MEAN_MOTION_DDOT": 0}, "tle": {"line1": "1 34497U 97051GN  25355.12660840  .00001107  00000+0  42942-3 0  9998", "line2": "2 34497  86.2771  48.8187 0078046 312.1215  76.3389 14.27475874870039"}}, "geometry": {"type": "Point", "coordinates": [48.30497903611751, -0.5698083270945126]}}, {"type": "Feature", "properties": {"norad_id": 34508, "name": "IRIDIUM 33 DEB", "group": "iridium-33-debris", "lat": 6.998063982923187, "lon": -81.83132500867299, "alt_km": 724.5194205005337, "timestamp": "2025-12-22T05:49:03.886405+00:00", "meta": {"OBJECT_NAME": "IRIDIUM 33 DEB", "OBJECT_ID": "1997-051GZ", "EPOCH": "2025-12-21T00:38:21.315840", "MEAN_MOTION": 14.38484044, "ECCENTRICITY": 0.00666098, "INCLINATION": 86.371, "RA_OF_ASC_NODE": 99.1304, "ARG_OF_PERICENTER": 146.3518, "MEAN_ANOMALY": 214.1938, "EPHEMERIS_TYPE": 0, "CLASSIFICATION_TYPE": "U", "NORAD_CAT_ID": 34508, "ELEMENT_SET_NO": 999, "REV_AT_EPOCH": 87428, "BSTAR": 0.00080829336, "MEAN_MOTION_DOT": 2.552e-05, "MEAN_MOTION_DDOT": 0}, "tle": {"line1": "1 34508U 97051GZ  25355.02663560  .00002552  00000+0  80829-3 0  9993", "line2": "2 34508  86.3710  99.1304 0066609 146.3518 214.1938 14.38484044874285"}}, "geometry": {"type": "Point", "coordinates": [-81.83132500867299, 6.998063982923187]}}, {"type": "Feature", "properties": {"norad_id": 34521, "name": "IRIDIUM 33 DEB", "group": "iridium-33-debris", "lat": 57.52826707936831, "lon": -159.3472811485058, "alt_km": 675.5542198572994, "timestamp": "2025-12-22T05:49:03.886415+00:00", "meta": {"OBJECT_NAME": "IRIDIUM 33 DEB", "OBJECT_ID": "1997-051HN", "EPOCH": "2025-12-21T09:34:06.570624", "MEAN_MOTION": 14.63431866, "ECCENTRICITY": 0.00026113, "INCLINATION": 86.3787, "RA_OF_ASC_NODE": 26.7355, "ARG_OF_PERICENTER": 178.2335, "MEAN_ANOMALY": 181.8887, "EPHEMERIS_TYPE": 0, "CLASSIFICATION_TYPE": "U", "NORAD_CAT_ID": 34521, "ELEMENT_SET_NO": 999, "REV_AT_EPOCH": 88599, "BSTAR": 0.00062299152, "MEAN_MOTION_DOT": 3.244e-05, "MEAN_MOTION_DDOT": 0}, "tle": {"line1": "1 34521U 97051HN  25355.39868716  .00003244  00000+0  62299-3 0  9998", "line2": "2 34521  86.3787  26.7355 0002611 178.2335 181.8887 14.63431866885995"}}, "geometry": {"type": "Point", "coordinates": [-159.3472811485058, 57.52826707936831]}}, {"type": "Feature", "properties": {"norad_id": 34525, "name": "IRIDIUM 33 DEB", "group": "iridium-33-debris", "lat": -38.663299161318676, "lon": 39.87777096670616, "alt_km": 757.0512142456782, "timestamp": "2025-12-22T05:49:03.886425+00:00", "meta": {"OBJECT_NAME": "IRIDIUM 33 DEB", "OBJECT_ID": "1997-051HS", "EPOCH": "2025-12-21T15:36:41.438304", "MEAN_MOTION": 14.42924911, "ECCENTRICITY": 0.0006415, "INCLINATION": 86.372, "RA_OF_ASC_NODE": 43.0402, "ARG_OF_PERICENTER": 74.7461, "MEAN_ANOMALY": 53.8442, "EPHEMERIS_TYPE": 0, "CLASSIFICATION_TYPE": "U", "NORAD_CAT_ID": 34525, "ELEMENT_SET_NO": 999, "REV_AT_EPOCH": 88216, "BSTAR": 0.00026512, "MEAN_MOTION_DOT": 9.06e-06, "MEAN_MOTION_DDOT": 0}, "tle": {"line1": "1 34525U 97051HS  25355.65047961  .00000906  00000+0  26512-3 0  9992", "line2": "2 34525  86.3720  43.0402 0006415  74.7461  53.8442 14.42924911882163"}}, "geometry": {"type": "Point", "coordinates": [39.87777096670616, -38.663299161318676]}}]}